{
    "links": {
        "self": "http://www.neowsapp.com/rest/v1/neo/3989258?api_key=iIulBulltgU6a56xZRHN4H3l9WmuAYTsLGpBGhQ2"
    },
    "id": "3989258",
    "neo_reference_id": "3989258",
    "name": "(2020 BJ11)",
    "designation": "2020 BJ11",
    "nasa_jpl_url": "http://ssd.jpl.nasa.gov/sbdb.cgi?sstr=3989258",
    "absolute_magnitude_h": 25.033,
    "estimated_diameter": {
        "kilometers": {
            "estimated_diameter_min": 0.0261791159,
            "estimated_diameter_max": 0.0585382828
        },
        "meters": {
            "estimated_diameter_min": 26.1791159475,
            "estimated_diameter_max": 58.5382828494
        },
        "miles": {
            "estimated_diameter_min": 0.0162669435,
            "estimated_diameter_max": 0.0363739914
        },
        "feet": {
            "estimated_diameter_min": 85.8894907651,
            "estimated_diameter_max": 192.0547399036
        }
    },
    "is_potentially_hazardous_asteroid": false,
    "close_approach_data": [
        {
            "close_approach_date": "1980-02-11",
            "close_approach_date_full": "1980-Feb-11 22:16",
            "epoch_date_close_approach": 319155360000,
            "relative_velocity": {
                "kilometers_per_second": "6.1495830915",
                "kilometers_per_hour": "22138.499129468",
                "miles_per_hour": "13756.0024174186"
            },
            "miss_distance": {
                "astronomical": "0.0877603067",
                "lunar": "34.1387593063",
                "kilometers": "13128754.952866729",
                "miles": "8157830.0441057002"
            },
            "orbiting_body": "Earth"
        },
        {
            "close_approach_date": "2000-02-11",
            "close_approach_date_full": "2000-Feb-11 02:43",
            "epoch_date_close_approach": 950236980000,
            "relative_velocity": {
                "kilometers_per_second": "6.1174615627",
                "kilometers_per_hour": "22022.8616257377",
                "miles_per_hour": "13684.1497696146"
            },
            "miss_distance": {
                "astronomical": "0.0962993668",
                "lunar": "37.4604536852",
                "kilometers": "14406180.155628716",
                "miles": "8951585.2581836408"
            },
            "orbiting_body": "Earth"
        },
        {
            "close_approach_date": "2020-02-18",
            "close_approach_date_full": "2020-Feb-18 20:38",
            "epoch_date_close_approach": 1582058280000,
            "relative_velocity": {
                "kilometers_per_second": "5.9270927268",
                "kilometers_per_hour": "21337.5338165218",
                "miles_per_hour": "13258.3137206049"
            },
            "miss_distance": {
                "astronomical": "0.0820137809",
                "lunar": "31.9033607701",
                "kilometers": "12269086.933286683",
                "miles": "7623657.1066669054"
            },
            "orbiting_body": "Earth"
        },
        {
            "close_approach_date": "2040-02-27",
            "close_approach_date_full": "2040-Feb-27 02:06",
            "epoch_date_close_approach": 2213921160000,
            "relative_velocity": {
                "kilometers_per_second": "6.6966366879",
                "kilometers_per_hour": "24107.8920765525",
                "miles_per_hour": "14979.7066072334"
            },
            "miss_distance": {
                "astronomical": "0.0897305818",
                "lunar": "34.9051963202",
                "kilometers": "13423503.911140766",
                "miles": "8340978.5540679308"
            },
            "orbiting_body": "Earth"
        },
        {
            "close_approach_date": "2060-02-24",
            "close_approach_date_full": "2060-Feb-24 11:44",
            "epoch_date_close_approach": 2844848640000,
            "relative_velocity": {
                "kilometers_per_second": "6.3867059577",
                "kilometers_per_hour": "22992.1414476654",
                "miles_per_hour": "14286.4225567452"
            },
            "miss_distance": {
                "astronomical": "0.0790079751",
                "lunar": "30.7341023139",
                "kilometers": "11819424.787973037",
                "miles": "7344250.0058484306"
            },
            "orbiting_body": "Earth"
        }
    ],
    "orbital_data": {
        "orbit_id": "7",
        "orbit_determination_date": "2020-03-27 05:58:02",
        "first_observation_date": "2020-01-02",
        "last_observation_date": "2020-03-15",
        "data_arc_in_days": 73,
        "observations_used": 34,
        "orbit_uncertainty": "5",
        "minimum_orbit_intersection": ".0816192",
        "jupiter_tisserand_invariant": "3.674",
        "epoch_osculation": "2459000.5",
        "eccentricity": ".471350508943287",
        "semi_major_axis": "2.014180800039403",
        "inclination": "6.148778615530145",
        "ascending_node_longitude": "341.7710310140595",
        "orbital_period": "1044.109637685574",
        "perihelion_distance": "1.064795654837033",
        "perihelion_argument": "161.5790771109435",
        "aphelion_distance": "2.963565945241773",
        "perihelion_time": "2458892.556771370936",
        "mean_anomaly": "37.21789446614166",
        "mean_motion": ".3447913772714464",
        "equinox": "J2000",
        "orbit_class": {
            "orbit_class_type": "AMO",
            "orbit_class_description": "Near-Earth asteroid orbits similar to that of 1221 Amor",
            "orbit_class_range": "1.017 AU < q (perihelion) < 1.3 AU"
        }
    },
    "is_sentry_object": false
}